[{"OBJECT_NAME":"UNKNOWN","OBJECT_ID":"","EPOCH":"2026-02-24T14:12:35.076096","MEAN_MOTION":12.96270399,"ECCENTRICITY":0.00299732,"INCLINATION":90.2472,"RA_OF_ASC_NODE":9.328,"ARG_OF_PERICENTER":106.1838,"MEAN_ANOMALY":254.2584,"EPHEMERIS_TYPE":0,"CLASSIFICATION_TYPE":"U","NORAD_CAT_ID":270122,"ELEMENT_SET_NO":999,"REV_AT_EPOCH":29478,"BSTAR":-0.00053686774,"MEAN_MOTION_DOT":-1.46e-6,"MEAN_MOTION_DDOT":0},{"OBJECT_NAME":"UNKNOWN","OBJECT_ID":"","EPOCH":"2026-02-27T23:07:36.683328","MEAN_MOTION":12.23923305,"ECCENTRICITY":0.08220128,"INCLINATION":83.2579,"RA_OF_ASC_NODE":319.793,"ARG_OF_PERICENTER":8.5869,"MEAN_ANOMALY":352.8326,"EPHEMERIS_TYPE":0,"CLASSIFICATION_TYPE":"U","NORAD_CAT_ID":270123,"ELEMENT_SET_NO":999,"REV_AT_EPOCH":27897,"BSTAR":0.0058534169,"MEAN_MOTION_DOT":1.923e-5,"MEAN_MOTION_DDOT":0},{"OBJECT_NAME":"UNKNOWN","OBJECT_ID":"","EPOCH":"2026-02-27T13:59:40.854336","MEAN_MOTION":12.96883069,"ECCENTRICITY":0.00263742,"INCLINATION":90.2491,"RA_OF_ASC_NODE":10.766,"ARG_OF_PERICENTER":327.0921,"MEAN_ANOMALY":32.8556,"EPHEMERIS_TYPE":0,"CLASSIFICATION_TYPE":"U","NORAD_CAT_ID":270124,"ELEMENT_SET_NO":999,"REV_AT_EPOCH":29607,"BSTAR":-0.00093312746,"MEAN_MOTION_DOT":-2.62e-6,"MEAN_MOTION_DDOT":0},{"OBJECT_NAME":"UNKNOWN","OBJECT_ID":"","EPOCH":"2026-02-28T22:45:57.012192","MEAN_MOTION":14.76825877,"ECCENTRICITY":0.0015962,"INCLINATION":86.3248,"RA_OF_ASC_NODE":300.5388,"ARG_OF_PERICENTER":350.0687,"MEAN_ANOMALY":10.0214,"EPHEMERIS_TYPE":0,"CLASSIFICATION_TYPE":"U","NORAD_CAT_ID":270127,"ELEMENT_SET_NO":999,"REV_AT_EPOCH":33225,"BSTAR":0.0012469522,"MEAN_MOTION_DOT":8.795e-5,"MEAN_MOTION_DDOT":0},{"OBJECT_NAME":"UNKNOWN","OBJECT_ID":"","EPOCH":"2026-03-05T03:26:30.039936","MEAN_MOTION":4.52464273,"ECCENTRICITY":0.54054944,"INCLINATION":63.1294,"RA_OF_ASC_NODE":119.6641,"ARG_OF_PERICENTER":348.4993,"MEAN_ANOMALY":2.9782,"EPHEMERIS_TYPE":0,"CLASSIFICATION_TYPE":"U","NORAD_CAT_ID":270131,"ELEMENT_SET_NO":999,"REV_AT_EPOCH":10364,"BSTAR":0.00032301757,"MEAN_MOTION_DOT":4.1e-7,"MEAN_MOTION_DDOT":0},{"OBJECT_NAME":"UNKNOWN","OBJECT_ID":"","EPOCH":"2026-02-26T07:23:49.162560","MEAN_MOTION":12.79652995,"ECCENTRICITY":0.03960639,"INCLINATION":63.2026,"RA_OF_ASC_NODE":267.2688,"ARG_OF_PERICENTER":21.397,"MEAN_ANOMALY":340.3073,"EPHEMERIS_TYPE":0,"CLASSIFICATION_TYPE":"U","NORAD_CAT_ID":270133,"ELEMENT_SET_NO":999,"REV_AT_EPOCH":29206,"BSTAR":0.0011605296,"MEAN_MOTION_DOT":2.89e-6,"MEAN_MOTION_DDOT":0},{"OBJECT_NAME":"UNKNOWN","OBJECT_ID":"","EPOCH":"2026-02-28T14:17:14.268192","MEAN_MOTION":12.12973557,"ECCENTRICITY":0.03096922,"INCLINATION":100.9898,"RA_OF_ASC_NODE":174.4301,"ARG_OF_PERICENTER":130.1091,"MEAN_ANOMALY":232.7542,"EPHEMERIS_TYPE":0,"CLASSIFICATION_TYPE":"U","NORAD_CAT_ID":270137,"ELEMENT_SET_NO":999,"REV_AT_EPOCH":27711,"BSTAR":-0.0013804642,"MEAN_MOTION_DOT":-1.86e-6,"MEAN_MOTION_DDOT":0},{"OBJECT_NAME":"UNKNOWN","OBJECT_ID":"","EPOCH":"2026-02-26T12:19:36.100992","MEAN_MOTION":14.93459114,"ECCENTRICITY":0.00108231,"INCLINATION":97.8131,"RA_OF_ASC_NODE":148.7516,"ARG_OF_PERICENTER":110.2597,"MEAN_ANOMALY":249.9787,"EPHEMERIS_TYPE":0,"CLASSIFICATION_TYPE":"U","NORAD_CAT_ID":270138,"ELEMENT_SET_NO":999,"REV_AT_EPOCH":33851,"BSTAR":0.00036632015,"MEAN_MOTION_DOT":3.799e-5,"MEAN_MOTION_DDOT":0},{"OBJECT_NAME":"UNKNOWN","OBJECT_ID":"","EPOCH":"2026-02-27T11:43:46.847424","MEAN_MOTION":12.513482,"ECCENTRICITY":0.07807312,"INCLINATION":99.4299,"RA_OF_ASC_NODE":143.5614,"ARG_OF_PERICENTER":268.814,"MEAN_ANOMALY":82.3481,"EPHEMERIS_TYPE":0,"CLASSIFICATION_TYPE":"U","NORAD_CAT_ID":270140,"ELEMENT_SET_NO":999,"REV_AT_EPOCH":28468,"BSTAR":0.0048359671,"MEAN_MOTION_DOT":2.277e-5,"MEAN_MOTION_DDOT":0},{"OBJECT_NAME":"UNKNOWN","OBJECT_ID":"","EPOCH":"2026-02-28T14:00:50.731200","MEAN_MOTION":12.42204241,"ECCENTRICITY":0.00258182,"INCLINATION":73.6104,"RA_OF_ASC_NODE":176.0811,"ARG_OF_PERICENTER":2.1468,"MEAN_ANOMALY":357.9683,"EPHEMERIS_TYPE":0,"CLASSIFICATION_TYPE":"U","NORAD_CAT_ID":270141,"ELEMENT_SET_NO":999,"REV_AT_EPOCH":28376,"BSTAR":1.850942e-6,"MEAN_MOTION_DOT":-1.7e-7,"MEAN_MOTION_DDOT":0},{"OBJECT_NAME":"UNKNOWN","OBJECT_ID":"","EPOCH":"2026-03-02T14:46:16.327200","MEAN_MOTION":13.06114924,"ECCENTRICITY":0.00326092,"INCLINATION":90.3136,"RA_OF_ASC_NODE":12.6793,"ARG_OF_PERICENTER":5.9223,"MEAN_ANOMALY":354.2282,"EPHEMERIS_TYPE":0,"CLASSIFICATION_TYPE":"U","NORAD_CAT_ID":270149,"ELEMENT_SET_NO":999,"REV_AT_EPOCH":29745,"BSTAR":0.0042271446,"MEAN_MOTION_DOT":1.399e-5,"MEAN_MOTION_DDOT":0},{"OBJECT_NAME":"UNKNOWN","OBJECT_ID":"","EPOCH":"2026-02-23T09:24:21.919968","MEAN_MOTION":12.98959332,"ECCENTRICITY":0.00369091,"INCLINATION":90.3092,"RA_OF_ASC_NODE":40.2655,"ARG_OF_PERICENTER":288.4472,"MEAN_ANOMALY":71.2639,"EPHEMERIS_TYPE":0,"CLASSIFICATION_TYPE":"U","NORAD_CAT_ID":270152,"ELEMENT_SET_NO":999,"REV_AT_EPOCH":29583,"BSTAR":0.0016606863,"MEAN_MOTION_DOT":5.01e-6,"MEAN_MOTION_DDOT":0},{"OBJECT_NAME":"UNKNOWN","OBJECT_ID":"","EPOCH":"2026-02-27T20:35:05.896896","MEAN_MOTION":12.30591894,"ECCENTRICITY":0.07503879,"INCLINATION":83.2073,"RA_OF_ASC_NODE":116.1979,"ARG_OF_PERICENTER":216.3237,"MEAN_ANOMALY":138.4622,"EPHEMERIS_TYPE":0,"CLASSIFICATION_TYPE":"U","NORAD_CAT_ID":270153,"ELEMENT_SET_NO":999,"REV_AT_EPOCH":28034,"BSTAR":0.0038071536,"MEAN_MOTION_DOT":1.163e-5,"MEAN_MOTION_DDOT":0},{"OBJECT_NAME":"UNKNOWN","OBJECT_ID":"","EPOCH":"2026-03-05T02:17:34.556640","MEAN_MOTION":12.96281023,"ECCENTRICITY":0.0034447,"INCLINATION":90.2503,"RA_OF_ASC_NODE":10.7301,"ARG_OF_PERICENTER":67.6388,"MEAN_ANOMALY":292.8377,"EPHEMERIS_TYPE":0,"CLASSIFICATION_TYPE":"U","NORAD_CAT_ID":270154,"ELEMENT_SET_NO":999,"REV_AT_EPOCH":29625,"BSTAR":0.00019262775,"MEAN_MOTION_DOT":6.3e-7,"MEAN_MOTION_DDOT":0},{"OBJECT_NAME":"UNKNOWN","OBJECT_ID":"","EPOCH":"2026-02-21T19:37:52.801536","MEAN_MOTION":12.54980098,"ECCENTRICITY":0.00707649,"INCLINATION":101.929,"RA_OF_ASC_NODE":276.731,"ARG_OF_PERICENTER":282.9476,"MEAN_ANOMALY":76.37,"EPHEMERIS_TYPE":0,"CLASSIFICATION_TYPE":"U","NORAD_CAT_ID":270155,"ELEMENT_SET_NO":999,"REV_AT_EPOCH":28567,"BSTAR":0.0019927052,"MEAN_MOTION_DOT":2.8e-6,"MEAN_MOTION_DDOT":0},{"OBJECT_NAME":"UNKNOWN","OBJECT_ID":"","EPOCH":"2026-03-02T14:10:00.216192","MEAN_MOTION":13.04398028,"ECCENTRICITY":0.0024139,"INCLINATION":90.2133,"RA_OF_ASC_NODE":15.9876,"ARG_OF_PERICENTER":85.6891,"MEAN_ANOMALY":274.6991,"EPHEMERIS_TYPE":0,"CLASSIFICATION_TYPE":"U","NORAD_CAT_ID":270156,"ELEMENT_SET_NO":999,"REV_AT_EPOCH":29668,"BSTAR":-0.0016375637,"MEAN_MOTION_DOT":-5.17e-6,"MEAN_MOTION_DDOT":0},{"OBJECT_NAME":"UNKNOWN","OBJECT_ID":"","EPOCH":"2026-02-24T19:59:30.337728","MEAN_MOTION":12.21567666,"ECCENTRICITY":0.01376147,"INCLINATION":74.001,"RA_OF_ASC_NODE":108.401,"ARG_OF_PERICENTER":218.7721,"MEAN_ANOMALY":140.3376,"EPHEMERIS_TYPE":0,"CLASSIFICATION_TYPE":"U","NORAD_CAT_ID":270158,"ELEMENT_SET_NO":999,"REV_AT_EPOCH":27872,"BSTAR":0.00013219068,"MEAN_MOTION_DOT":-1.0e-8,"MEAN_MOTION_DDOT":0},{"OBJECT_NAME":"UNKNOWN","OBJECT_ID":"","EPOCH":"2026-03-05T04:29:22.985376","MEAN_MOTION":12.81677833,"ECCENTRICITY":0.02746819,"INCLINATION":62.9623,"RA_OF_ASC_NODE":24.0074,"ARG_OF_PERICENTER":226.3296,"MEAN_ANOMALY":131.4631,"EPHEMERIS_TYPE":0,"CLASSIFICATION_TYPE":"U","NORAD_CAT_ID":270159,"ELEMENT_SET_NO":999,"REV_AT_EPOCH":29337,"BSTAR":-0.00048607077,"MEAN_MOTION_DOT":-2.11e-6,"MEAN_MOTION_DDOT":0},{"OBJECT_NAME":"UNKNOWN","OBJECT_ID":"","EPOCH":"2026-02-26T11:41:41.278848","MEAN_MOTION":12.15969695,"ECCENTRICITY":0.08741314,"INCLINATION":83.2678,"RA_OF_ASC_NODE":340.4053,"ARG_OF_PERICENTER":105.8462,"MEAN_ANOMALY":264.0646,"EPHEMERIS_TYPE":0,"CLASSIFICATION_TYPE":"U","NORAD_CAT_ID":270160,"ELEMENT_SET_NO":999,"REV_AT_EPOCH":27623,"BSTAR":0.0092230044,"MEAN_MOTION_DOT":3.044e-5,"MEAN_MOTION_DDOT":0},{"OBJECT_NAME":"UNKNOWN","OBJECT_ID":"","EPOCH":"2026-03-01T18:18:42.293664","MEAN_MOTION":12.76601017,"ECCENTRICITY":0.00538835,"INCLINATION":101.1088,"RA_OF_ASC_NODE":46.6903,"ARG_OF_PERICENTER":101.4194,"MEAN_ANOMALY":259.2953,"EPHEMERIS_TYPE":0,"CLASSIFICATION_TYPE":"U","NORAD_CAT_ID":270161,"ELEMENT_SET_NO":999,"REV_AT_EPOCH":29126,"BSTAR":0.0018303926,"MEAN_MOTION_DOT":3.56e-6,"MEAN_MOTION_DDOT":0},{"OBJECT_NAME":"UNKNOWN","OBJECT_ID":"","EPOCH":"2026-02-04T03:43:02.942688","MEAN_MOTION":12.64542644,"ECCENTRICITY":0.09256333,"INCLINATION":28.8478,"RA_OF_ASC_NODE":352.8808,"ARG_OF_PERICENTER":287.8893,"MEAN_ANOMALY":62.2913,"EPHEMERIS_TYPE":0,"CLASSIFICATION_TYPE":"U","NORAD_CAT_ID":270162,"ELEMENT_SET_NO":999,"REV_AT_EPOCH":28501,"BSTAR":0.00070926834,"MEAN_MOTION_DOT":8.15e-6,"MEAN_MOTION_DDOT":0},{"OBJECT_NAME":"UNKNOWN","OBJECT_ID":"","EPOCH":"2026-03-02T14:40:56.540064","MEAN_MOTION":13.00016871,"ECCENTRICITY":0.00248703,"INCLINATION":90.2473,"RA_OF_ASC_NODE":8.8725,"ARG_OF_PERICENTER":187.1938,"MEAN_ANOMALY":172.8831,"EPHEMERIS_TYPE":0,"CLASSIFICATION_TYPE":"U","NORAD_CAT_ID":270164,"ELEMENT_SET_NO":999,"REV_AT_EPOCH":29613,"BSTAR":0.0030879597,"MEAN_MOTION_DOT":9.38e-6,"MEAN_MOTION_DDOT":0},{"OBJECT_NAME":"UNKNOWN","OBJECT_ID":"","EPOCH":"2026-02-04T05:08:41.686368","MEAN_MOTION":12.95696277,"ECCENTRICITY":0.00421421,"INCLINATION":90.242,"RA_OF_ASC_NODE":9.2357,"ARG_OF_PERICENTER":184.1265,"MEAN_ANOMALY":175.9514,"EPHEMERIS_TYPE":0,"CLASSIFICATION_TYPE":"U","NORAD_CAT_ID":270165,"ELEMENT_SET_NO":999,"REV_AT_EPOCH":29124,"BSTAR":0.0014032366,"MEAN_MOTION_DOT":4.06e-6,"MEAN_MOTION_DDOT":0},{"OBJECT_NAME":"UNKNOWN","OBJECT_ID":"","EPOCH":"2026-02-26T11:56:22.259040","MEAN_MOTION":11.48026764,"ECCENTRICITY":0.06982932,"INCLINATION":65.7383,"RA_OF_ASC_NODE":351.8824,"ARG_OF_PERICENTER":170.9615,"MEAN_ANOMALY":190.4693,"EPHEMERIS_TYPE":0,"CLASSIFICATION_TYPE":"U","NORAD_CAT_ID":270167,"ELEMENT_SET_NO":999,"REV_AT_EPOCH":26179,"BSTAR":-5.0455715e-5,"MEAN_MOTION_DOT":-4.6e-7,"MEAN_MOTION_DDOT":0}]
